{
  "type": "FeatureCollection",
  "features": [
    {
      "type": "Feature",
      "properties": {
        "norad_id": 30947,
        "name": "FENGYUN 1C DEB",
        "group": "fengyun-1c-debris",
        "lat": 23.14218730283194,
        "lon": -129.7396367416391,
        "alt_km": 807.1724367624784,
        "timestamp": "2025-12-10T11:33:53.664968+00:00",
        "meta_object_name": "FENGYUN 1C DEB",
        "meta_object_id": "1999-025BAM",
        "meta_epoch": "2025-12-09T03:43:37.602912",
        "meta_mean_motion": 14.38029909,
        "meta_eccentricity": 0.00957302,
        "meta_inclination": 98.8088,
        "meta_ra_of_asc_node": 232.7007,
        "meta_arg_of_pericenter": 258.4535,
        "meta_mean_anomaly": 100.5891,
        "meta_ephemeris_type": 0,
        "meta_classification_type": "U",
        "meta_norad_cat_id": 30947,
        "meta_element_set_no": 999,
        "meta_rev_at_epoch": 98441,
        "meta_bstar": 0.00047572934,
        "meta_mean_motion_dot": 1.469e-05,
        "meta_mean_motion_ddot": 0,
        "tle_line1": "1 30947U 99025BAM 25343.15529633  .00001469  00000+0  47573-3 0  9997",
        "tle_line2": "2 30947  98.8088 232.7007 0095730 258.4535 100.5891 14.38029909984418"
      },
      "geometry": {
        "type": "Point",
        "coordinates": [
          -129.7396367416391,
          23.14218730283194
        ]
      }
    },
    {
      "type": "Feature",
      "properties": {
        "norad_id": 30949,
        "name": "FENGYUN 1C DEB",
        "group": "fengyun-1c-debris",
        "lat": 34.43422159189255,
        "lon": 164.9161651647717,
        "alt_km": 926.4132270575019,
        "timestamp": "2025-12-10T11:33:53.664978+00:00",
        "meta_object_name": "FENGYUN 1C DEB",
        "meta_object_id": "1999-025BAP",
        "meta_epoch": "2025-12-09T18:44:39.277824",
        "meta_mean_motion": 14.14043331,
        "meta_eccentricity": 0.0116447,
        "meta_inclination": 98.6974,
        "meta_ra_of_asc_node": 338.21,
        "meta_arg_of_pericenter": 318.3292,
        "meta_mean_anomaly": 221.1179,
        "meta_ephemeris_type": 0,
        "meta_classification_type": "U",
        "meta_norad_cat_id": 30949,
        "meta_element_set_no": 999,
        "meta_rev_at_epoch": 96474,
        "meta_bstar": 0.00042755,
        "meta_mean_motion_dot": 8.24e-06,
        "meta_mean_motion_ddot": 0,
        "tle_line1": "1 30949U 99025BAP 25343.78101016  .00000824  00000+0  42755-3 0  9990",
        "tle_line2": "2 30949  98.6974 338.2100 0116447 318.3292 221.1179 14.14043331964745"
      },
      "geometry": {
        "type": "Point",
        "coordinates": [
          164.9161651647717,
          34.43422159189255
        ]
      }
    },
    {
      "type": "Feature",
      "properties": {
        "norad_id": 30954,
        "name": "FENGYUN 1C DEB",
        "group": "fengyun-1c-debris",
        "lat": -1.0495132911137903,
        "lon": -95.51376824595404,
        "alt_km": 754.9184810587449,
        "timestamp": "2025-12-10T11:33:53.664988+00:00",
        "meta_object_name": "FENGYUN 1C DEB",
        "meta_object_id": "1999-025BAU",
        "meta_epoch": "2025-12-09T18:30:31.844160",
        "meta_mean_motion": 14.14908577,
        "meta_eccentricity": 0.012872,
        "meta_inclination": 98.7115,
        "meta_ra_of_asc_node": 83.9533,
        "meta_arg_of_pericenter": 195.7137,
        "meta_mean_anomaly": 327.6591,
        "meta_ephemeris_type": 0,
        "meta_classification_type": "U",
        "meta_norad_cat_id": 30954,
        "meta_element_set_no": 999,
        "meta_rev_at_epoch": 96345,
        "meta_bstar": 0.0021526,
        "meta_mean_motion_dot": 4.465e-05,
        "meta_mean_motion_ddot": 0,
        "tle_line1": "1 30954U 99025BAU 25343.77120190  .00004465  00000+0  21526-2 0  9996",
        "tle_line2": "2 30954  98.7115  83.9533 0128720 195.7137 327.6591 14.14908577963454"
      },
      "geometry": {
        "type": "Point",
        "coordinates": [
          -95.51376824595404,
          -1.0495132911137903
        ]
      }
    },
    {
      "type": "Feature",
      "properties": {
        "norad_id": 30956,
        "name": "FENGYUN 1C DEB",
        "group": "fengyun-1c-debris",
        "lat": -3.6663778971883043,
        "lon": -162.0246037028364,
        "alt_km": 882.982200306451,
        "timestamp": "2025-12-10T11:33:53.664998+00:00",
        "meta_object_name": "FENGYUN 1C DEB",
        "meta_object_id": "1999-025BAW",
        "meta_epoch": "2025-12-09T13:21:27.445824",
        "meta_mean_motion": 14.14190977,
        "meta_eccentricity": 0.0049338,
        "meta_inclination": 98.7604,
        "meta_ra_of_asc_node": 17.6344,
        "meta_arg_of_pericenter": 352.1573,
        "meta_mean_anomaly": 163.3992,
        "meta_ephemeris_type": 0,
        "meta_classification_type": "U",
        "meta_norad_cat_id": 30956,
        "meta_element_set_no": 999,
        "meta_rev_at_epoch": 96262,
        "meta_bstar": 0.0014968,
        "meta_mean_motion_dot": 2.844e-05,
        "meta_mean_motion_ddot": 0,
        "tle_line1": "1 30956U 99025BAW 25343.55656766  .00002844  00000+0  14968-2 0  9998",
        "tle_line2": "2 30956  98.7604  17.6344 0049338 352.1573 163.3992 14.14190977962628"
      },
      "geometry": {
        "type": "Point",
        "coordinates": [
          -162.0246037028364,
          -3.6663778971883043
        ]
      }
    },
    {
      "type": "Feature",
      "properties": {
        "norad_id": 30960,
        "name": "FENGYUN 1C DEB",
        "group": "fengyun-1c-debris",
        "lat": -54.07978221941338,
        "lon": 112.87921692706269,
        "alt_km": 777.0689134183331,
        "timestamp": "2025-12-10T11:33:53.665021+00:00",
        "meta_object_name": "FENGYUN 1C DEB",
        "meta_object_id": "1999-025BBA",
        "meta_epoch": "2025-12-09T03:04:47.835552",
        "meta_mean_motion": 14.66749109,
        "meta_eccentricity": 0.01966665,
        "meta_inclination": 99.0003,
        "meta_ra_of_asc_node": 98.7561,
        "meta_arg_of_pericenter": 172.9505,
        "meta_mean_anomaly": 187.4537,
        "meta_ephemeris_type": 0,
        "meta_classification_type": "U",
        "meta_norad_cat_id": 30960,
        "meta_element_set_no": 999,
        "meta_rev_at_epoch": 98645,
        "meta_bstar": 0.0019392811,
        "meta_mean_motion_dot": 0.00014404,
        "meta_mean_motion_ddot": 0,
        "tle_line1": "1 30960U 99025BBA 25343.12833143  .00014404  00000+0  19393-2 0  9994",
        "tle_line2": "2 30960  99.0003  98.7561 0196666 172.9505 187.4537 14.66749109986454"
      },
      "geometry": {
        "type": "Point",
        "coordinates": [
          112.87921692706269,
          -54.07978221941338
        ]
      }
    },
    {
      "type": "Feature",
      "properties": {
        "norad_id": 30967,
        "name": "FENGYUN 1C DEB",
        "group": "fengyun-1c-debris",
        "lat": -68.40221366331097,
        "lon": 87.64962851575834,
        "alt_km": 642.8046624136387,
        "timestamp": "2025-12-10T11:33:53.665033+00:00",
        "meta_object_name": "FENGYUN 1C DEB",
        "meta_object_id": "1999-025BBH",
        "meta_epoch": "2025-12-10T02:10:32.648160",
        "meta_mean_motion": 14.57106571,
        "meta_eccentricity": 0.0094711,
        "meta_inclination": 98.7635,
        "meta_ra_of_asc_node": 290.1712,
        "meta_arg_of_pericenter": 247.8494,
        "meta_mean_anomaly": 111.263,
        "meta_ephemeris_type": 0,
        "meta_classification_type": "U",
        "meta_norad_cat_id": 30967,
        "meta_element_set_no": 999,
        "meta_rev_at_epoch": 98975,
        "meta_bstar": 0.0012391,
        "meta_mean_motion_dot": 5.884e-05,
        "meta_mean_motion_ddot": 0,
        "tle_line1": "1 30967U 99025BBH 25344.09065565  .00005884  00000+0  12391-2 0  9996",
        "tle_line2": "2 30967  98.7635 290.1712 0094711 247.8494 111.2630 14.57106571989756"
      },
      "geometry": {
        "type": "Point",
        "coordinates": [
          87.64962851575834,
          -68.40221366331097
        ]
      }
    },
    {
      "type": "Feature",
      "properties": {
        "norad_id": 30971,
        "name": "FENGYUN 1C DEB",
        "group": "fengyun-1c-debris",
        "lat": -22.417973087096055,
        "lon": 31.8728436787244,
        "alt_km": 747.5505041318302,
        "timestamp": "2025-12-10T11:33:53.665043+00:00",
        "meta_object_name": "FENGYUN 1C DEB",
        "meta_object_id": "1999-025BBM",
        "meta_epoch": "2025-12-10T02:01:12.904032",
        "meta_mean_motion": 14.71662877,
        "meta_eccentricity": 0.0163758,
        "meta_inclination": 99.2097,
        "meta_ra_of_asc_node": 27.5852,
        "meta_arg_of_pericenter": 199.3806,
        "meta_mean_anomaly": 191.0155,
        "meta_ephemeris_type": 0,
        "meta_classification_type": "U",
        "meta_norad_cat_id": 30971,
        "meta_element_set_no": 999,
        "meta_rev_at_epoch": 99678,
        "meta_bstar": 0.00091148,
        "meta_mean_motion_dot": 6.94e-05,
        "meta_mean_motion_ddot": 0,
        "tle_line1": "1 30971U 99025BBM 25344.08417713  .00006940  00000+0  91148-3 0  9998",
        "tle_line2": "2 30971  99.2097  27.5852 0163758 199.3806 191.0155 14.71662877996783"
      },
      "geometry": {
        "type": "Point",
        "coordinates": [
          31.8728436787244,
          -22.417973087096055
        ]
      }
    }
  ]
}